start=new Date('2022-07-28T00:00:00.000Z').valueOf();
sats=[{"RA_OF_ASC_NODE":"111.3410","SEMIMAJOR_AXIS":"6925.295","REF_FRAME":"TEME","ELEMENT_SET_NO":"999","GP_ID":"208997586","NORAD_CAT_ID":"47149","SITE":"AFETR","EPOCH":"2022-07-27T19:05:42.259200","MEAN_MOTION_DOT":"0.00008450","OBJECT_ID":"2020-088AD","REV_AT_EPOCH":"9348","MEAN_ELEMENT_THEORY":"SGP4","BSTAR":"0.00058522000000","DECAY_DATE":null,"TLE_LINE1":"1 47149U 20088AD  22208.79562800  .00008450  00000-0  58522-3 0  9996","PERIOD":"95.591","RCS_SIZE":"LARGE","MEAN_MOTION":"15.06417598","ARG_OF_PERICENTER":"85.5416","LAUNCH_DATE":"2020-11-25","CENTER_NAME":"EARTH","TIME_SYSTEM":"UTC","MEAN_MOTION_DDOT":"0.0000000000000","ECCENTRICITY":"0.00017660","TLE_LINE2":"2 47149  53.0538 111.3410 0001766  85.5416 274.5774 15.06417598 93487","EPHEMERIS_TYPE":"0","MEAN_ANOMALY":"274.5774","INCLINATION":"53.0538","APOAPSIS":"548.383","FILE":"3523323","CLASSIFICATION_TYPE":"U","COUNTRY_CODE":"US","OBJECT_TYPE":"PAYLOAD","PERIAPSIS":"545.937","OBJECT_NAME":"STARLINK-1862"},{"EPHEMERIS_TYPE":"0","MEAN_ANOMALY":"280.8843","TIME_SYSTEM":"UTC","MEAN_MOTION_DDOT":"0.0000000000000","ECCENTRICITY":"0.00017280","TLE_LINE2":"2 47150  53.0547 104.3430 0001728  79.2340 280.8843 15.06410167 93041","LAUNCH_DATE":"2020-11-25","CENTER_NAME":"EARTH","OBJECT_NAME":"STARLINK-1863","COUNTRY_CODE":"US","OBJECT_TYPE":"PAYLOAD","CLASSIFICATION_TYPE":"U","PERIAPSIS":"545.986","FILE":"3522616","INCLINATION":"53.0547","APOAPSIS":"548.379","REV_AT_EPOCH":"9304","MEAN_ELEMENT_THEORY":"SGP4","BSTAR":"-0.00006118700000","DECAY_DATE":null,"SITE":"AFETR","EPOCH":"2022-07-27T03:01:00.366816","MEAN_MOTION_DOT":"-0.00001193","OBJECT_ID":"2020-088AE","GP_ID":"208936517","NORAD_CAT_ID":"47150","RA_OF_ASC_NODE":"104.3430","SEMIMAJOR_AXIS":"6925.317","REF_FRAME":"TEME","ELEMENT_SET_NO":"999","RCS_SIZE":"LARGE","ARG_OF_PERICENTER":"79.2340","MEAN_MOTION":"15.06410167","PERIOD":"95.591","TLE_LINE1":"1 47150U 20088AE  22208.12569869 -.00001193  00000-0 -61187-4 0  9998"},{"OBJECT_NAME":"STARLINK-1864","PERIAPSIS":"546.070","COUNTRY_CODE":"US","OBJECT_TYPE":"PAYLOAD","CLASSIFICATION_TYPE":"U","FILE":"3523109","INCLINATION":"53.0536","APOAPSIS":"548.313","EPHEMERIS_TYPE":"0","MEAN_ANOMALY":"292.0582","MEAN_MOTION_DDOT":"0.0000000000000","TIME_SYSTEM":"UTC","TLE_LINE2":"2 47151  53.0536 112.8755 0001619  68.0579 292.0582 15.06407235 92690","ECCENTRICITY":"0.00016190","LAUNCH_DATE":"2020-11-25","CENTER_NAME":"EARTH","RCS_SIZE":"LARGE","ARG_OF_PERICENTER":"68.0579","MEAN_MOTION":"15.06407235","PERIOD":"95.592","TLE_LINE1":"1 47151U 20088AF  22208.45651231  .00001680  00000-0  13164-3 0  9990","MEAN_ELEMENT_THEORY":"SGP4","BSTAR":"0.00013164000000","REV_AT_EPOCH":"9269","DECAY_DATE":null,"SITE":"AFETR","MEAN_MOTION_DOT":"0.00001680","EPOCH":"2022-07-27T10:57:22.663584","OBJECT_ID":"2020-088AF","NORAD_CAT_ID":"47151","GP_ID":"208968052","SEMIMAJOR_AXIS":"6925.326","RA_OF_ASC_NODE":"112.8755","ELEMENT_SET_NO":"999","REF_FRAME":"TEME"},{"PERIAPSIS":"546.137","OBJECT_TYPE":"PAYLOAD","COUNTRY_CODE":"US","CLASSIFICATION_TYPE":"U","OBJECT_NAME":"STARLINK-1866","INCLINATION":"53.0531","APOAPSIS":"548.278","FILE":"3523209","MEAN_MOTION_DDOT":"0.0000000000000","TIME_SYSTEM":"UTC","ECCENTRICITY":"0.00015460","TLE_LINE2":"2 47152  53.0531 111.1341 0001546  83.4866 276.6299 15.06402055 93002","EPHEMERIS_TYPE":"0","MEAN_ANOMALY":"276.6299","LAUNCH_DATE":"2020-11-25","CENTER_NAME":"EARTH","RCS_SIZE":"LARGE","MEAN_MOTION":"15.06402055","ARG_OF_PERICENTER":"83.4866","TLE_LINE1":"1 47152U 20088AG  22208.83890560  .00001878  00000-0  14495-3 0  9990","PERIOD":"95.592","SITE":"AFETR","EPOCH":"2022-07-27T20:08:01.443840","MEAN_MOTION_DOT":"0.00001878","OBJECT_ID":"2020-088AG","BSTAR":"0.00014495000000","MEAN_ELEMENT_THEORY":"SGP4","REV_AT_EPOCH":"9300","DECAY_DATE":null,"SEMIMAJOR_AXIS":"6925.342","RA_OF_ASC_NODE":"111.1341","REF_FRAME":"TEME","ELEMENT_SET_NO":"999","NORAD_CAT_ID":"47152","GP_ID":"208974355"},{"SEMIMAJOR_AXIS":"6925.353","RA_OF_ASC_NODE":"118.1832","ELEMENT_SET_NO":"999","REF_FRAME":"TEME","GP_ID":"208968555","NORAD_CAT_ID":"47153","SITE":"AFETR","EPOCH":"2022-07-27T10:32:52.383552","MEAN_MOTION_DOT":"0.00002675","OBJECT_ID":"2020-088AH","BSTAR":"0.00019840000000","MEAN_ELEMENT_THEORY":"SGP4","REV_AT_EPOCH":"9262","DECAY_DATE":null,"TLE_LINE1":"1 47153U 20088AH  22208.43949518  .00002675  00000-0  19840-3 0  9990","PERIOD":"95.592","ARG_OF_PERICENTER":"63.3462","RCS_SIZE":"LARGE","MEAN_MOTION":"15.06398688","LAUNCH_DATE":"2020-11-25","CENTER_NAME":"EARTH","MEAN_MOTION_DDOT":"0.0000000000000","TIME_SYSTEM":"UTC","TLE_LINE2":"2 47153  53.0547 118.1832 0001439  63.3462 296.7674 15.06398688 92625","ECCENTRICITY":"0.00014390","EPHEMERIS_TYPE":"0","MEAN_ANOMALY":"296.7674","INCLINATION":"53.0547","APOAPSIS":"548.214","FILE":"3523109","PERIAPSIS":"546.221","COUNTRY_CODE":"US","OBJECT_TYPE":"PAYLOAD","CLASSIFICATION_TYPE":"U","OBJECT_NAME":"STARLINK-1867"},{"FILE":"3523323","INCLINATION":"53.0544","APOAPSIS":"548.452","OBJECT_NAME":"STARLINK-1868","OBJECT_TYPE":"PAYLOAD","COUNTRY_CODE":"US","CLASSIFICATION_TYPE":"U","PERIAPSIS":"546.093","LAUNCH_DATE":"2020-11-25","CENTER_NAME":"EARTH","EPHEMERIS_TYPE":"0","MEAN_ANOMALY":"291.1715","TIME_SYSTEM":"UTC","MEAN_MOTION_DDOT":"0.0000000000000","ECCENTRICITY":"0.00017030","TLE_LINE2":"2 47154  53.0544 101.8579 0001703  68.9456 291.1715 15.06380687 92870","PERIOD":"95.593","TLE_LINE1":"1 47154U 20088AJ  22208.67859117 -.00000716  00000-0 -29188-4 0  9995","ARG_OF_PERICENTER":"68.9456","RCS_SIZE":"LARGE","MEAN_MOTION":"15.06380687","GP_ID":"208997837","NORAD_CAT_ID":"47154","RA_OF_ASC_NODE":"101.8579","SEMIMAJOR_AXIS":"6925.408","REF_FRAME":"TEME","ELEMENT_SET_NO":"999","REV_AT_EPOCH":"9287","BSTAR":"-0.00002918800000","MEAN_ELEMENT_THEORY":"SGP4","DECAY_DATE":null,"SITE":"AFETR","MEAN_MOTION_DOT":"-0.00000716","EPOCH":"2022-07-27T16:17:10.277088","OBJECT_ID":"2020-088AJ"},{"CENTER_NAME":"EARTH","LAUNCH_DATE":"2020-11-25","TLE_LINE2":"2 47155  53.0557 124.1056 0001568  80.4100 279.7066 15.06404810 92761","ECCENTRICITY":"0.00015680","TIME_SYSTEM":"UTC","MEAN_MOTION_DDOT":"0.0000000000000","MEAN_ANOMALY":"279.7066","EPHEMERIS_TYPE":"0","APOAPSIS":"548.285","INCLINATION":"53.0557","FILE":"3522689","COUNTRY_CODE":"US","OBJECT_TYPE":"PAYLOAD","CLASSIFICATION_TYPE":"U","PERIAPSIS":"546.113","OBJECT_NAME":"STARLINK-1869","ELEMENT_SET_NO":"999","REF_FRAME":"TEME","RA_OF_ASC_NODE":"124.1056","SEMIMAJOR_AXIS":"6925.334","GP_ID":"208936092","NORAD_CAT_ID":"47155","EPOCH":"2022-07-27T04:23:16.391904","MEAN_MOTION_DOT":"0.00003878","OBJECT_ID":"2020-088AK","SITE":"AFETR","DECAY_DATE":null,"REV_AT_EPOCH":"9276","MEAN_ELEMENT_THEORY":"SGP4","BSTAR":"0.00027908000000","TLE_LINE1":"1 47155U 20088AK  22208.18282861  .00003878  00000-0  27908-3 0  9995","PERIOD":"95.592","RCS_SIZE":"LARGE","ARG_OF_PERICENTER":"80.4100","MEAN_MOTION":"15.06404810"},{"PERIAPSIS":"545.968","CLASSIFICATION_TYPE":"U","COUNTRY_CODE":"US","OBJECT_TYPE":"PAYLOAD","OBJECT_NAME":"STARLINK-1871","APOAPSIS":"548.790","INCLINATION":"53.0556","FILE":"3522624","ECCENTRICITY":"0.00020370","TLE_LINE2":"2 47157  53.0556 114.2162 0002037  79.9102 280.2117 15.06346008 92901","MEAN_MOTION_DDOT":"0.0000000000000","TIME_SYSTEM":"UTC","MEAN_ANOMALY":"280.2117","EPHEMERIS_TYPE":"0","CENTER_NAME":"EARTH","LAUNCH_DATE":"2020-11-25","ARG_OF_PERICENTER":"79.9102","RCS_SIZE":"LARGE","MEAN_MOTION":"15.06346008","TLE_LINE1":"1 47157U 20088AM  22208.15428591  .00016420  00000-0  11203-2 0  9993","PERIOD":"95.596","MEAN_MOTION_DOT":"0.00016420","EPOCH":"2022-07-27T03:42:10.302624","OBJECT_ID":"2020-088AM","SITE":"AFETR","DECAY_DATE":null,"BSTAR":"0.00112030000000","MEAN_ELEMENT_THEORY":"SGP4","REV_AT_EPOCH":"9290","ELEMENT_SET_NO":"999","REF_FRAME":"TEME","SEMIMAJOR_AXIS":"6925.514","RA_OF_ASC_NODE":"114.2162","GP_ID":"208936625","NORAD_CAT_ID":"47157"},{"RCS_SIZE":"LARGE","ARG_OF_PERICENTER":"83.3669","MEAN_MOTION":"15.06398405","TLE_LINE1":"1 47158U 20088AN  22208.44269371  .00002698  00000-0  19997-3 0  9996","PERIOD":"95.592","SITE":"AFETR","MEAN_MOTION_DOT":"0.00002698","EPOCH":"2022-07-27T10:37:28.736544","OBJECT_ID":"2020-088AN","MEAN_ELEMENT_THEORY":"SGP4","BSTAR":"0.00019997000000","REV_AT_EPOCH":"9283","DECAY_DATE":null,"SEMIMAJOR_AXIS":"6925.353","RA_OF_ASC_NODE":"102.9286","REF_FRAME":"TEME","ELEMENT_SET_NO":"999","NORAD_CAT_ID":"47158","GP_ID":"208969055","PERIAPSIS":"546.195","COUNTRY_CODE":"US","OBJECT_TYPE":"PAYLOAD","CLASSIFICATION_TYPE":"U","OBJECT_NAME":"STARLINK-1873","INCLINATION":"53.0556","APOAPSIS":"548.242","FILE":"3523109","MEAN_MOTION_DDOT":"0.0000000000000","TIME_SYSTEM":"UTC","ECCENTRICITY":"0.00014780","TLE_LINE2":"2 47158  53.0556 102.9286 0001478  83.3669 276.7489 15.06398405 92830","EPHEMERIS_TYPE":"0","MEAN_ANOMALY":"276.7489","LAUNCH_DATE":"2020-11-25","CENTER_NAME":"EARTH"},{"PERIOD":"95.592","TLE_LINE1":"1 47161U 20088AR  22208.80759446  .00001977  00000-0  15157-3 0  9990","MEAN_MOTION":"15.06405893","RCS_SIZE":"LARGE","ARG_OF_PERICENTER":"71.1617","GP_ID":"208998330","NORAD_CAT_ID":"47161","SEMIMAJOR_AXIS":"6925.330","RA_OF_ASC_NODE":"101.2864","REF_FRAME":"TEME","ELEMENT_SET_NO":"999","MEAN_ELEMENT_THEORY":"SGP4","BSTAR":"0.00015157000000","REV_AT_EPOCH":"9289","DECAY_DATE":null,"SITE":"AFETR","EPOCH":"2022-07-27T19:22:56.161344","MEAN_MOTION_DOT":"0.00001977","OBJECT_ID":"2020-088AR","FILE":"3523323","INCLINATION":"53.0553","APOAPSIS":"548.371","OBJECT_NAME":"STARLINK-1876","PERIAPSIS":"546.020","OBJECT_TYPE":"PAYLOAD","COUNTRY_CODE":"US","CLASSIFICATION_TYPE":"U","LAUNCH_DATE":"2020-11-25","CENTER_NAME":"EARTH","EPHEMERIS_TYPE":"0","MEAN_ANOMALY":"288.9556","MEAN_MOTION_DDOT":"0.0000000000000","TIME_SYSTEM":"UTC","ECCENTRICITY":"0.00016980","TLE_LINE2":"2 47161  53.0553 101.2864 0001698  71.1617 288.9556 15.06405893 92893"}];
